{
"type": "FeatureCollection",
"crs": { "type": "name", "properties": { "name": "urn:ogc:def:crs:EPSG::3347" } },
"features": [
{ "type": "Feature", "properties": { "Team": "Titans", "Conference": "AFC", "zip": 37213, "pic": "y", "Unnamed: 6": "g" }, "geometry": { "type": "Point", "coordinates": [ -86.771289, 36.166461 ] } },
{ "type": "Feature", "properties": { "Team": "Giants", "Conference": "NFC", "zip": 10021, "pic": "y", "Unnamed: 6": null }, "geometry": { "type": "Point", "coordinates": [ -74.076983, 40.812194 ] } },
{ "type": "Feature", "properties": { "Team": "Steelers", "Conference": "AFC", "zip": 15202, "pic": "y", "Unnamed: 6": null }, "geometry": { "type": "Point", "coordinates": [ -80.015761, 40.446786 ] } },
{ "type": "Feature", "properties": { "Team": "Panthers", "Conference": "NFC", "zip": 28202, "pic": "y", "Unnamed: 6": "g" }, "geometry": { "type": "Point", "coordinates": [ -80.852861, 35.225808 ] } },
{ "type": "Feature", "properties": { "Team": "Ravens", "Conference": "AFC", "zip": 21203, "pic": "y", "Unnamed: 6": "g" }, "geometry": { "type": "Point", "coordinates": [ -76.622767, 39.277969 ] } },
{ "type": "Feature", "properties": { "Team": "Buccaneers", "Conference": "NFC", "zip": 33607, "pic": "y", "Unnamed: 6": "g" }, "geometry": { "type": "Point", "coordinates": [ -82.50335, 27.975967 ] } },
{ "type": "Feature", "properties": { "Team": "Colts", "Conference": "AFC", "zip": 46201, "pic": "y", "Unnamed: 6": null }, "geometry": { "type": "Point", "coordinates": [ -86.163806, 39.760056 ] } },
{ "type": "Feature", "properties": { "Team": "Vikings", "Conference": "NFC", "zip": 56760, "pic": "y", "Unnamed: 6": null }, "geometry": { "type": "Point", "coordinates": [ -93.258094, 44.973881 ] } },
{ "type": "Feature", "properties": { "Team": "Cardinals", "Conference": "NFC", "zip": 63102, "pic": "y", "Unnamed: 6": null }, "geometry": { "type": "Point", "coordinates": [ -112.262608, 33.5277 ] } },
{ "type": "Feature", "properties": { "Team": "Cowboys", "Conference": "NFC", "zip": 75203, "pic": "y", "Unnamed: 6": null }, "geometry": { "type": "Point", "coordinates": [ -97.092778, 32.747778 ] } },
{ "type": "Feature", "properties": { "Team": "Falcons", "Conference": "NFC", "zip": 30303, "pic": "y", "Unnamed: 6": null }, "geometry": { "type": "Point", "coordinates": [ -84.400972, 33.757614 ] } },
{ "type": "Feature", "properties": { "Team": "Jets", "Conference": "AFC", "zip": 10001, "pic": "y", "Unnamed: 6": null }, "geometry": { "type": "Point", "coordinates": [ -74.076983, 40.812194 ] } },
{ "type": "Feature", "properties": { "Team": "Broncos", "Conference": "AFC", "zip": 28037, "pic": "y", "Unnamed: 6": "g" }, "geometry": { "type": "Point", "coordinates": [ -105.020097, 39.743936 ] } },
{ "type": "Feature", "properties": { "Team": "Dolphins", "Conference": "AFC", "zip": 33102, "pic": "y", "Unnamed: 6": null }, "geometry": { "type": "Point", "coordinates": [ -80.238842, 25.957919 ] } },
{ "type": "Feature", "properties": { "Team": "Eagles", "Conference": "NFC", "zip": 19092, "pic": "y", "Unnamed: 6": null }, "geometry": { "type": "Point", "coordinates": [ -75.167453, 39.900775 ] } },
{ "type": "Feature", "properties": { "Team": "Bears", "Conference": "NFC", "zip": 60602, "pic": "y", "Unnamed: 6": null }, "geometry": { "type": "Point", "coordinates": [ -87.616672, 41.862306 ] } },
{ "type": "Feature", "properties": { "Team": "Patriots", "Conference": "AFC", "zip": 58647, "pic": "y", "Unnamed: 6": null }, "geometry": { "type": "Point", "coordinates": [ -71.26435, 42.090925 ] } },
{ "type": "Feature", "properties": { "Team": "Redskins", "Conference": "NFC", "zip": 20575, "pic": "y", "Unnamed: 6": null }, "geometry": { "type": "Point", "coordinates": [ -76.864517, 38.907697 ] } },
{ "type": "Feature", "properties": { "Team": "Packers", "Conference": "NFC", "zip": 54301, "pic": "y", "Unnamed: 6": null }, "geometry": { "type": "Point", "coordinates": [ -88.062167, 44.501306 ] } },
{ "type": "Feature", "properties": { "Team": "Chargers", "Conference": "AFC", "zip": 92103, "pic": "y", "Unnamed: 6": null }, "geometry": { "type": "Point", "coordinates": [ -117.119525, 32.783117 ] } },
{ "type": "Feature", "properties": { "Team": "Saints", "Conference": "NFC", "zip": 70112, "pic": "y", "Unnamed: 6": "g" }, "geometry": { "type": "Point", "coordinates": [ -90.081364, 29.950931 ] } },
{ "type": "Feature", "properties": { "Team": "Texans", "Conference": "AFC", "zip": 77002, "pic": "y", "Unnamed: 6": null }, "geometry": { "type": "Point", "coordinates": [ -95.410956, 29.684781 ] } },
{ "type": "Feature", "properties": { "Team": "Bills", "Conference": "AFC", "zip": 14202, "pic": "y", "Unnamed: 6": "g" }, "geometry": { "type": "Point", "coordinates": [ -78.786978, 42.773739 ] } },
{ "type": "Feature", "properties": { "Team": "Forty-Niners", "Conference": "NFC", "zip": 94102, "pic": "y", "Unnamed: 6": null }, "geometry": { "type": "Point", "coordinates": [ -122.386256, 37.713486 ] } },
{ "type": "Feature", "properties": { "Team": "Jaguars", "Conference": "AFC", "zip": 32099, "pic": "y", "Unnamed: 6": null }, "geometry": { "type": "Point", "coordinates": [ -81.637356, 30.323925 ] } },
{ "type": "Feature", "properties": { "Team": "Browns", "Conference": "AFC", "zip": 44114, "pic": "y", "Unnamed: 6": null }, "geometry": { "type": "Point", "coordinates": [ -81.699564, 41.506022 ] } },
{ "type": "Feature", "properties": { "Team": "Raiders", "Conference": "AFC", "zip": 94502, "pic": "y", "Unnamed: 6": "g" }, "geometry": { "type": "Point", "coordinates": [ -122.200889, 37.751411 ] } },
{ "type": "Feature", "properties": { "Team": "Chiefs", "Conference": "AFC", "zip": 66027, "pic": "y", "Unnamed: 6": null }, "geometry": { "type": "Point", "coordinates": [ -94.484039, 39.048914 ] } },
{ "type": "Feature", "properties": { "Team": "Rams", "Conference": "NFC", "zip": 63101, "pic": "y", "Unnamed: 6": null }, "geometry": { "type": "Point", "coordinates": [ -90.188547, 38.632975 ] } },
{ "type": "Feature", "properties": { "Team": "Seahawks", "Conference": "NFC", "zip": 98102, "pic": "y", "Unnamed: 6": null }, "geometry": { "type": "Point", "coordinates": [ -122.331625, 47.595153 ] } },
{ "type": "Feature", "properties": { "Team": "Bengals", "Conference": "AFC", "zip": 45202, "pic": "y", "Unnamed: 6": null }, "geometry": { "type": "Point", "coordinates": [ -84.516039, 39.095442 ] } },
{ "type": "Feature", "properties": { "Team": "Lions", "Conference": "NFC", "zip": 48205, "pic": "y", "Unnamed: 6": null }, "geometry": { "type": "Point", "coordinates": [ -83.045808, 42.340156 ] } }
]
}
